FENGYUN 1C DEB          
1 31035U 99025BED 17345.46831082  .00000641  00000-0  21226-3 0  9996
2 31035  98.7367  62.2043 0251196 176.2661 244.1901 14.25096311555754
